COMMENT,ORIGINATOR,NORAD_CAT_ID,OBJECT_NAME,OBJECT_TYPE,CLASSIFICATION_TYPE,INTLDES,EPOCH,EPOCH_MICROSECONDS,MEAN_MOTION,ECCENTRICITY,INCLINATION,RA_OF_ASC_NODE,ARG_OF_PERICENTER,MEAN_ANOMALY,EPHEMERIS_TYPE,ELEMENT_SET_NO,REV_AT_EPOCH,BSTAR,MEAN_MOTION_DOT,MEAN_MOTION_DDOT,FILE,TLE_LINE0,TLE_LINE1,TLE_LINE2,OBJECT_ID,OBJECT_NUMBER,SEMIMAJOR_AXIS,PERIOD,APOGEE,PERIGEE,DECAYED,date
GENERATED VIA SPACETRACK.ORG API,18 SPCS,48886,SPACEBEE-102,PAYLOAD,U,21059H,2023/1/25 3:58,21792,15.21359211,0.0008089,97.5769,159.6903,53.1779,307.0197,0,999,8756,0.0012904,0.00028958,0,3760567,0 SPACEBEE-102,1 48886U 21059H   23025.16527803  .00028958  00000-0  12904-2 0  9995,2 48886  97.5769 159.6903 0008089  53.1779 307.0197 15.21359211 87562,2021-059H,48886,6879.877,94.652,507.307,496.177,0,2023/2/16
GENERATED VIA SPACETRACK.ORG API,18 SPCS,48886,SPACEBEE-102,PAYLOAD,U,21059H,2023/1/25 8:42,237376,15.21366004,0.0008112,97.5768,159.8889,52.5937,307.6036,0,999,8759,0.0010549,0.00023648,0,3761297,0 SPACEBEE-102,1 48886U 21059H   23025.36259534  .00023648  00000-0  10549-2 0  9994,2 48886  97.5768 159.8889 0008112  52.5937 307.6036 15.21366004 87591,2021-059H,48886,6879.856,94.652,507.302,496.14,0,2023/2/17
GENERATED VIA SPACETRACK.ORG API,18 SPCS,48886,SPACEBEE-102,PAYLOAD,U,21059H,2023/1/25 19:45,3008,15.21389205,0.0008063,97.5767,160.352,51.2522,308.9433,0,999,8766,0.0011038,0.00024768,0,3761360,0 SPACEBEE-102,1 48886U 21059H   23025.82299772  .00024768  00000-0  11038-2 0  9991,2 48886  97.5767 160.3520 0008063  51.2522 308.9433 15.21389205 87661,2021-059H,48886,6879.786,94.65,507.199,496.104,0,2023/2/18
GENERATED VIA SPACETRACK.ORG API,18 SPCS,48886,SPACEBEE-102,PAYLOAD,U,21059H,2023/1/26 8:22,659008,15.2141504,0.0008077,97.5765,160.8817,49.3449,310.8487,0,999,8774,0.0010674,0.00023964,0,3761951,0 SPACEBEE-102,1 48886U 21059H   23026.34916272  .00023964  00000-0  10674-2 0  9992,2 48886  97.5765 160.8817 0008077  49.3449 310.8487 15.21415040 87741,2021-059H,48886,6879.709,94.649,507.13,496.017,0,2023/2/19
GENERATED VIA SPACETRACK.ORG API,18 SPCS,48886,SPACEBEE-102,PAYLOAD,U,21059H,2023/1/26 14:41,714848,15.21428573,0.0008024,97.5764,161.1463,48.4711,311.7212,0,999,8778,0.0011341,0.00025481,0,3761961,0 SPACEBEE-102,1 48886U 21059H   23026.61224207  .00025481  00000-0  11341-2 0  9990,2 48886  97.5764 161.1463 0008024  48.4711 311.7212 15.21428573 87780,2021-059H,48886,6879.668,94.648,507.053,496.012,0,2023/2/20
GENERATED VIA SPACETRACK.ORG API,18 SPCS,48886,SPACEBEE-102,PAYLOAD,U,21059H,2023/1/27 8:03,431616,15.21459894,0.0008,97.5762,161.8746,45.613,314.576,0,999,8789,0.00094085,0.00021134,0,3762956,0 SPACEBEE-102,1 48886U 21059H   23027.33569944  .00021134  00000-0  94085-3 0  9998,2 48886  97.5762 161.8746 0008000  45.6130 314.5760 15.21459894 87898,2021-059H,48886,6879.573,94.646,506.942,495.935,0,2023/2/21
GENERATED VIA SPACETRACK.ORG API,18 SPCS,48886,SPACEBEE-102,PAYLOAD,U,21059H,2023/1/27 20:41,58944,15.2148324,0.0007924,97.5762,162.404,43.8668,316.3195,0,999,8797,0.00095922,0.00021564,0,3763218,0 SPACEBEE-102,1 48886U 21059H   23027.86184096  .00021564  00000-0  95922-3 0  9995,2 48886  97.5762 162.4040 0007924  43.8668 316.3195 15.21483240 87975,2021-059H,48886,6879.503,94.644,506.819,495.917,0,2023/2/22
GENERATED VIA SPACETRACK.ORG API,18 SPCS,48886,SPACEBEE-102,PAYLOAD,U,21059H,2023/1/28 4:34,352832,15.21497711,0.0007974,97.5761,162.7351,42.8748,317.3108,0,999,8802,0.001015,0.00022836,0,3763469,0 SPACEBEE-102,1 48886U 21059H   23028.19067538  .00022836  00000-0  10150-2 0  9995,2 48886  97.5761 162.7351 0007974  42.8748 317.3108 15.21497711 88025,2021-059H,48886,6879.459,94.644,506.81,495.839,0,2023/2/23
GENERATED VIA SPACETRACK.ORG API,18 SPCS,48886,SPACEBEE-102,PAYLOAD,U,21059H,2023/1/28 7:43,791936,15.21503932,0.0007979,97.5761,162.8675,42.3841,317.8009,0,999,8804,0.0010015,0.00022534,0,3763924,0 SPACEBEE-102,1 48886U 21059H   23028.32220824  .00022534  00000-0  10015-2 0  9994,2 48886  97.5761 162.8675 0007979  42.3841 317.8009 15.21503932 88049,2021-059H,48886,6879.441,94.643,506.795,495.816,0,2023/2/24
GENERATED VIA SPACETRACK.ORG API,18 SPCS,48886,SPACEBEE-102,PAYLOAD,U,21059H,2023/1/28 20:21,183744,15.21522598,0.0007902,97.5761,163.3969,41.1471,319.0359,0,999,8812,0.00078656,0.0001768,0,3764201,0 SPACEBEE-102,1 48886U 21059H   23028.84833546  .00017680  00000-0  78656-3 0  9994,2 48886  97.5761 163.3969 0007902  41.1471 319.0359 15.21522598 88123,2021-059H,48886,6879.384,94.642,506.685,495.813,0,2023/2/25
GENERATED VIA SPACETRACK.ORG API,18 SPCS,48886,SPACEBEE-102,PAYLOAD,U,21059H,2023/1/29 7:24,872160,15.21541652,0.0007952,97.5761,163.8606,39.4458,320.7354,0,999,8819,0.00083968,0.00018893,0,3764423,0 SPACEBEE-102,1 48886U 21059H   23029.30869065  .00018893  00000-0  83968-3 0  9990,2 48886  97.5761 163.8606 0007952  39.4458 320.7354 15.21541652 88199,2021-059H,48886,6879.327,94.641,506.662,495.721,0,2023/2/26
GENERATED VIA SPACETRACK.ORG API,18 SPCS,48886,SPACEBEE-102,PAYLOAD,U,21059H,2023/1/29 20:02,151136,15.21558714,0.0007871,97.5762,164.3898,38.0746,322.1044,0,999,8827,0.0006851,0.00015402,0,3765015,0 SPACEBEE-102,1 48886U 21059H   23029.83480499  .00015402  00000-0  68510-3 0  9997,2 48886  97.5762 164.3898 0007871  38.0746 322.1044 15.21558714 88272,2021-059H,48886,6879.275,94.64,506.555,495.726,0,2023/2/27
GENERATED VIA SPACETRACK.ORG API,18 SPCS,48886,SPACEBEE-102,PAYLOAD,U,21059H,2023/1/30 8:39,878880,15.21576622,0.0007917,97.5761,164.9198,36.1099,324.067,0,999,8835,0.00070998,0.00015974,0,3765514,0 SPACEBEE-102,1 48886U 21059H   23030.36091295  .00015974  00000-0  70998-3 0  9996,2 48886  97.5761 164.9198 0007917  36.1099 324.0670 15.21576622 88354,2021-059H,48886,6879.221,94.639,506.533,495.64,0,2023/2/28
GENERATED VIA SPACETRACK.ORG API,18 SPCS,48886,SPACEBEE-102,PAYLOAD,U,21059H,2023/1/30 8:39,878880,15.21576622,0.0007917,97.5761,164.9198,36.1099,324.067,0,999,8835,0.00070998,0.00015974,0,3765576,0 SPACEBEE-102,1 48886U 21059H   23030.36091295  .00015974  00000-0  70998-3 0  9996,2 48886  97.5761 164.9198 0007917  36.1099 324.0670 15.21576622 88354,2021-059H,48886,6879.221,94.639,506.533,495.64,0,2023/3/1
GENERATED VIA SPACETRACK.ORG API,18 SPCS,48886,SPACEBEE-102,PAYLOAD,U,21059H,2023/1/30 21:17,129696,15.21592275,0.000789,97.576,165.4495,34.3447,325.8297,0,999,8843,0.00066289,0.00014914,0,3765849,0 SPACEBEE-102,1 48886U 21059H   23030.88701539  .00014914  00000-0  66289-3 0  9993,2 48886  97.5760 165.4495 0007890  34.3447 325.8297 15.21592275 88431,2021-059H,48886,6879.174,94.638,506.467,495.612,0,2023/3/2
GENERATED VIA SPACETRACK.ORG API,18 SPCS,48886,SPACEBEE-102,PAYLOAD,U,21059H,2023/1/31 14:38,191936,15.21619222,0.000784,97.5759,166.1778,31.6477,328.5228,0,999,8854,0.00078728,0.00017747,0,3766376,0 SPACEBEE-102,1 48886U 21059H   23031.61039574  .00017747  00000-0  78728-3 0  9996,2 48886  97.5759 166.1778 0007840  31.6477 328.5228 15.21619222 88547,2021-059H,48886,6879.093,94.636,506.351,495.565,0,2023/3/3
GENERATED VIA SPACETRACK.ORG API,18 SPCS,48886,SPACEBEE-102,PAYLOAD,U,21059H,2023/1/31 14:38,191936,15.21619222,0.000784,97.5759,166.1778,31.6477,328.5228,0,999,8854,0.00078728,0.00017747,0,3766475,0 SPACEBEE-102,1 48886U 21059H   23031.61039574  .00017747  00000-0  78728-3 0  9996,2 48886  97.5759 166.1778 0007840  31.6477 328.5228 15.21619222 88547,2021-059H,48886,6879.093,94.636,506.351,495.565,0,2023/3/4
GENERATED VIA SPACETRACK.ORG API,18 SPCS,48886,SPACEBEE-102,PAYLOAD,U,21059H,2023/2/1 8:00,181088,15.21646168,0.0007789,97.5761,166.9062,29.1241,331.0427,0,999,8865,0.00080635,0.00018194,0,3767525,0 SPACEBEE-102,1 48886U 21059H   23032.33376367  .00018194  00000-0  80635-3 0  9997,2 48886  97.5761 166.9062 0007789  29.1241 331.0427 15.21646168 88658,2021-059H,48886,6879.012,94.634,506.235,495.519,0,2023/3/5
GENERATED VIA SPACETRACK.ORG API,18 SPCS,48886,SPACEBEE-102,PAYLOAD,U,21059H,2023/2/2 2:56,738688,15.21672351,0.0007756,97.5762,167.7007,26.2897,333.8731,0,999,8877,0.00076214,0.00017203,0,3768077,0 SPACEBEE-102,1 48886U 21059H   23033.12287892  .00017203  00000-0  76214-3 0  9997,2 48886  97.5762 167.7007 0007756  26.2897 333.8731 15.21672351 88770,2021-059H,48886,6878.933,94.633,506.133,495.463,0,2023/3/6
GENERATED VIA SPACETRACK.ORG API,18 SPCS,48886,SPACEBEE-102,PAYLOAD,U,21059H,2023/2/2 7:41,266720,15.21687444,0.0007729,97.5763,167.8995,25.3127,334.8486,0,999,8880,0.00096488,0.00021821,0,3768366,0 SPACEBEE-102,1 48886U 21059H   23033.32015355  .00021821  00000-0  96488-3 0  9998,2 48886  97.5763 167.8995 0007729  25.3127 334.8486 15.21687444 88805,2021-059H,48886,6878.887,94.632,506.069,495.436,0,2023/3/7
GENERATED VIA SPACETRACK.ORG API,18 SPCS,48886,SPACEBEE-102,PAYLOAD,U,21059H,2023/2/2 7:41,266720,15.21687444,0.0007729,97.5763,167.8995,25.3127,334.8486,0,999,8880,0.00096488,0.00021821,0,3768950,0 SPACEBEE-102,1 48886U 21059H   23033.32015355  .00021821  00000-0  96488-3 0  9998,2 48886  97.5763 167.8995 0007729  25.3127 334.8486 15.21687444 88805,2021-059H,48886,6878.887,94.632,506.069,495.436,0,2023/3/8
GENERATED VIA SPACETRACK.ORG API,18 SPCS,48886,SPACEBEE-102,PAYLOAD,U,21059H,2023/2/3 8:56,496928,15.21726723,0.0007685,97.5767,168.959,22.01,338.1464,0,999,8896,0.00083815,0.0001896,0,3770162,0 SPACEBEE-102,1 48886U 21059H   23034.37227427  .00018960  00000-0  83815-3 0  9999,2 48886  97.5767 168.9590 0007685  22.0100 338.1464 15.21726723 88962,2021-059H,48886,6878.769,94.629,505.92,495.348,0,2023/3/9
GENERATED VIA SPACETRACK.ORG API,18 SPCS,48886,SPACEBEE-102,PAYLOAD,U,21059H,2023/2/3 8:56,496928,15.21726723,0.0007685,97.5767,168.959,22.01,338.1464,0,999,8896,0.00083815,0.0001896,0,3770323,0 SPACEBEE-102,1 48886U 21059H   23034.37227427  .00018960  00000-0  83815-3 0  9999,2 48886  97.5767 168.9590 0007685  22.0100 338.1464 15.21726723 88962,2021-059H,48886,6878.769,94.629,505.92,495.348,0,2023/3/10
